[{"OBJECT_NAME":"ICEYE-X41","OBJECT_ID":"2025-009CV","EPOCH":"2026-03-09T16:55:08.694336","MEAN_MOTION":14.96071666,"ECCENTRICITY":0.00019001,"INCLINATION":97.711,"RA_OF_ASC_NODE":149.7146,"ARG_OF_PERICENTER":53.5813,"MEAN_ANOMALY":306.5584,"EPHEMERIS_TYPE":0,"CLASSIFICATION_TYPE":"U","NORAD_CAT_ID":62700,"ELEMENT_SET_NO":999,"REV_AT_EPOCH":6253,"BSTAR":0.00045867277,"MEAN_MOTION_DOT":5.098e-5,"MEAN_MOTION_DDOT":0},{"OBJECT_NAME":"STARLINK-36123","OBJECT_ID":"2025-293E","EPOCH":"2026-03-09T16:00:03.000096","MEAN_MOTION":14.98362037,"ECCENTRICITY":0.0003577,"INCLINATION":69.9998,"RA_OF_ASC_NODE":94.4135,"ARG_OF_PERICENTER":276.095,"MEAN_ANOMALY":201.5645,"EPHEMERIS_TYPE":0,"CLASSIFICATION_TYPE":"U","NORAD_CAT_ID":67007,"ELEMENT_SET_NO":999,"REV_AT_EPOCH":578,"BSTAR":-0.0036852177,"MEAN_MOTION_DOT":-0.00043829,"MEAN_MOTION_DDOT":0}]
